{
  "Title": "Listing of Registered Non-Regulated Power Producers",
  "Number of Registered Companies": 70,
  "Companies": [
    {
      "Docket": "D-96-6- E",
      "Company Name": "Constellation New Energy",
      "Address": "100 Constellation Way, Suite 500C",
      "City": "Baltimore",
      "ST": "Md",
      "Zip": "21202"
    },
    {
      "Docket": "D-96-6- Z",
      "Company Name": "Direct Energy Business, LLC",
      "Address": "1001 Liberty Avenue, Suite 1200",
      "City": "Pittsburgh",
      "ST": "PA",
      "Zip": "15222"
    },
    {
      "Docket": "D-96-6- I1",
      "Company Name": "Tiverton Power LLC",
      "Address": "304 Progress Rd",
      "City": "Tiverton",
      "ST": "RI",
      "Zip": "02878"
    },
    {
      "Docket": "D-96-6- L1",
      "Company Name": "Ocean State Power",
      "Address": "1575 Sherman Farm Road",
      "City": "Harrisville",
      "ST": "RI",
      "Zip": "02830"
    },
    {
      "Docket": "D-96-6- M1",
      "Company Name": "Ocean State Power II",
      "Address": "1575 Sherman Farm Road",
      "City": "Harrisville",
      "ST": "RI",
      "Zip": "02830"
    },
    {
      "Docket": "D-96-6- N1",
      "Company Name": "TransCanada Power Marketing Ltd.",
      "Address": "110 Turnpike Rd, Suite 300",
      "City": "Westborough",
      "ST": "MA",
      "Zip": "01581"
    },
    {
      "Docket": "D-96-6- J2",
      "Company Name": "ECANE DBA People's Power & Light",
      "Address": "284 Amory St.",
      "City": "Boston",
      "ST": "MA",
      "Zip": "02130"
    },
    {
      "Docket": "D-96-6- L2",
      "Company Name": "Energy New England LLC",
      "Address": "100 Foxborough Blvd., Suite 110",
      "City": "Foxborough",
      "ST": "MA",
      "Zip": "02035"
    },
    {
      "Docket": "D-96-6- P2",
      "Company Name": "Engie Resources LLC",
      "Address": "1990 Post Oak Boulevard, Suite 1900",
      "City": "Houston",
      "ST": "TX",
      "Zip": "77056"
    },
    {
      "Docket": "D-96-6- R2",
      "Company Name": "Westerly Hospital Energy Company, LLC",
      "Address": "25 Wells St.",
      "City": "Westerly",
      "ST": "RI",
      "Zip": "02891"
    },
    {
      "Docket": "D-96-6- U2",
      "Company Name": "Direct Energy Services, LLC",
      "Address": "12 Greenway Plaza, Suite 250",
      "City": "Houston",
      "ST": "TX",
      "Zip": "77046"
    },
    {
      "Docket": "D-96-6- W2",
      "Company Name": "Constellation Energy Services, Inc.",
      "Address": "100 Constellation Way, Suite 600C",
      "City": "Baltimore",
      "ST": "MD",
      "Zip": "21202"
    },
    {
      "Docket": "D-96-6- Y2",
      "Company Name": "Usource LLC",
      "Address": "6 Liberty Lane West",
      "City": "Hampton",
      "ST": "NH",
      "Zip": "03842"
    },
    {
      "Docket": "D-96-6- Z2",
      "Company Name": "Consumer Energy Solutions, Inc.",
      "Address": "1255 Cleveland Street, Suite 400",
      "City": "Clearwater",
      "ST": "FL",
      "Zip": "33756"
    },
    {
      "Docket": "D-96-6- B3",
      "Company Name": "Global Montello Group Corp.",
      "Address": "800 South St., Suite 500",
      "City": "Waltham",
      "ST": "MA",
      "Zip": "02454"
    },
    {
      "Docket": "D-96-6- H3",
      "Company Name": "Liberty Power Delaware, LLC",
      "Address": "1901 W. Cypress Creek Rd., Suite 600",
      "City": "Fort Lauderdale",
      "ST": "Fl 33309"
    },
    {
      "Docket": "D-96-6- I3",
      "Company Name": "Liberty Power Holdings, LLC",
      "Address": "1901 W. Cypress Creek Rd., Suite 600",
      "City": "Fort Lauderdale",
      "ST": "Fl 33309"
    },
    {
      "Docket": "D-96-6- K3",
      "Company Name": "Halifax American Operating Co",
      "Address": "1 South Jersey Plaza, Route 54",
      "City": "Folsom",
      "ST": "NJ",
      "Zip": "08037"
    },
    {
      "Docket": "D-96-6- M3",
      "Company Name": "NextEra Energy Services Rhode Island, LLC",
      "Address": "20455 State Highway 249, Suite 200",
      "City": "Houston",
      "ST": "TX",
      "Zip": "77070"
    },
    {
      "Docket": "D-96-6- O3",
      "Company Name": "Providence Power LLC",
      "Address": "120 White Plains Rd, Suite 610",
      "City": "Tarrytown",
      "ST": "NY",
      "Zip": "10591"
    },
    {
      "Docket": "D-96-6- P3",
      "Company Name": "Rhode Island Engine Genco, LLC",
      "Address": "120 White Plains Rd, Suite 610",
      "City": "Tarrytown",
      "ST": "NY",
      "Zip": "10591"
    },
    {
      "Docket": "D-96-6- R3",
      "Company Name": "Secure Energy Solutions, LLC",
      "Address": "12-14 Somers Rd.",
      "City": "East Longmeadow",
      "ST": "MA",
      "Zip": "01028"
    },
    {
      "Docket": "D-96-6- S3",
      "Company Name": "Shell Energy North America (US), L.P.",
      "Address": "1000 Main St, Level 12",
      "City": "Houston",
      "ST": "TX",
      "Zip": "77002"
    },
    {
      "Docket": "D-96-6- T3",
      "Company Name": "Noble Americas Energy Solutions LLC",
      "Address": "401 West A Street, Suite 500",
      "City": "San Diego",
      "ST": "CA",
      "Zip": "92101"
    },
    {
      "Docket": "D-96-6- Y3",
      "Company Name": "Quest Energy Solutions",
      "Address": "203 Southbridge St",
      "City": "Auburn",
      "ST": "MA",
      "Zip": "01501"
    },
    {
      "Docket": "D-96-6- Z3",
      "Company Name": "Taylor Consulting and Contracting, LLC",
      "Address": "625 Main St.",
      "City": "Avoca",
      "ST": "PA",
      "Zip": "18941"
    },
    {
      "Docket": "D-96-6- A4",
      "Company Name": "Early Bird Power",
      "Address": "1 Adams St.",
      "City": "Milton",
      "ST": "MA",
      "Zip": "02186"
    },
    {
      "Docket": "D-96-6- B4",
      "Company Name": "Devonshire Energy LLC",
      "Address": "82 Devonshire St. R7A",
      "City": "Boston",
      "ST": "MA",
      "Zip": "02109"
    },
    {
      "Docket": "D-96-6- C4",
      "Company Name": "Technology Resource Solutions, Inc., dba VARO",
      "Address": "4455 Transit Rd., Suite 2C",
      "City": "Williamsville",
      "ST": "NY",
      "Zip": "14221"
    },
    {
      "Docket": "D-96-6- D4",
      "Company Name": "TFS Energy Solutions, LLC",
      "Address": "9 West Broad St, 9th Floor",
      "City": "Stamford",
      "ST": "CT",
      "Zip": "06902"
    },
    {
      "Docket": "D-96-6- E4",
      "Company Name": "First Point Power LLC",
      "Address": "300 Jefferson Blvd, Suite 104",
      "City": "Warwick",
      "ST": "RI",
      "Zip": "02888"
    },
    {
      "Docket": "D-96-6- G4",
      "Company Name": "Goldstar Energy Group Inc.",
      "Address": "5429 Harding Highway, Bldg. 500",
      "City": "Mays Landing",
      "ST": "NJ",
      "Zip": "08330"
    },
    {
      "Docket": "D-96-6- I4",
      "Company Name": "Power 2 Profit Energy Solutions Inc.",
      "Address": "601 Portion Rd, Suite 211",
      "City": "Ronkikoma",
      "ST": "NY",
      "Zip": "11779"
    },
    {
      "Docket": "D-96-6- J4",
      "Company Name": "Mint Energy, LLC",
      "Address": "1 Rounder Way, Suite 220",
      "City": "Burlington",
      "ST": "MA",
      "Zip": "01803"
    },
    {
      "Docket": "D-96-6- K4",
      "Company Name": "Patriot Energy Group, Inc.",
      "Address": "1 Rounder Way, Suite 200",
      "City": "Burlington",
      "ST": "MA",
      "Zip": "01803"
    },
    {
      "Docket": "D-96-6- M4",
      "Company Name": "Integrity Energy, LTD",
      "Address": "5711 Grant Ave",
      "City": "Cleveland",
      "ST": "OH",
      "Zip": "44105"
    },
    {
      "Docket": "D-96-6- N4",
      "Company Name": "Best Practice Energy LLC.",
      "Address": "24 Salt Pond Rd., H-3",
      "City": "Wakefield",
      "ST": "RI",
      "Zip": "02879"
    },
    {
      "Docket": "D-96-6- P4",
      "Company Name": "Energy Rebate, Inc.",
      "Address": "29 Carriage House Path",
      "City": "Ashland",
      "ST": "MA",
      "Zip": "01721"
    },
    {
      "Docket": "D-96-6- Q4",
      "Company Name": "Ameresco",
      "Address": "Point West Place 111 Speen St, Ste 410",
      "City": "Framingham",
      "ST": "MA",
      "Zip": "01701"
    },
    {
      "Docket": "D-96-6- R4",
      "Company Name": "Resource Energy Systems, LLC.",
      "Address": "1177 High Ridge Rd",
      "City": "Stamford",
      "ST": "CT",
      "Zip": "06905"
    },
    {
      "Docket": "D-96-6- S4",
      "Company Name": "Single Source Energy Solutions, Inc.",
      "Address": "7 Bay Cliff Circle",
      "City": "Plymouth",
      "ST": "MA",
      "Zip": "02360"
    },
    {
      "Docket": "D-96-6- T4",
      "Company Name": "Innovative Energy Advisors LLC",
      "Address": "One River Center",
      "City": "Red Bank",
      "ST": "NJ",
      "Zip": "07701"
    },
    {
      "Docket": "D-96-6- V4",
      "Company Name": "Unified Energy Services, LLC",
      "Address": "3900 Essex Lane, Ste 750",
      "City": "Houston",
      "ST": "TX",
      "Zip": "77027"
    },
    {
      "Docket": "D-96-6- Y4",
      "Company Name": "National Utility Service, Inc.",
      "Address": "One Maynard Drive",
      "City": "Park Ridge",
      "ST": "NJ",
      "Zip": "7656"
    },
    {
      "Docket": "D-96-6- Z4",
      "Company Name": "Consolidated Edison Solutions",
      "Address": "100 Summit Lake Dr., Suite 410",
      "City": "Valhalla",
      "ST": "NY",
      "Zip": "10595"
    },
    {
      "Docket": "D-96-6- A5",
      "Company Name": "Ecova, Inc.",
      "Address": "1313 N. Atlantic, Suite 500",
      "City": "Spokane",
      "ST": "Wa",
      "Zip": "99201"
    },
    {
      "Docket": "D-96-6- B5",
      "Company Name": "Electric Advisors, Inc.",
      "Address": "5272 River Road, Ste 440",
      "City": "Bethesda",
      "ST": "MD",
      "Zip": "20816"
    },
    {
      "Docket": "D-96-6- D5",
      "Company Name": "Pope Energy",
      "Address": "PO Box 290835",
      "City": "Charlestown",
      "ST": "MA",
      "Zip": "02129"
    },
    {
      "Docket": "D-96-6- E5",
      "Company Name": "Rhode Island State Energy Center, LP",
      "Address": "9405 Arrowpoint Blvd.",
      "City": "Charlotte",
      "ST": "NC",
      "Zip": "28273"
    },
    {
      "Docket": "D-96-6- F5",
      "Company Name": "Power Management Co., L.L.C.",
      "Address": "1600 Moseley Road",
      "City": "Victor",
      "ST": "NY",
      "Zip": "14564"
    },
    {
      "Docket": "D-96-6- G5",
      "Company Name": "Sprague Energy Solutions Inc.",
      "Address": "185 International Drive",
      "City": "Portsmouth",
      "ST": "NH",
      "Zip": "03801"
    },
    {
      "Docket": "D-96-6- H5",
      "Company Name": "Affiliated Power Purchases International, LLC",
      "Address": "2013 Northwood Dr.",
      "City": "Salisbury",
      "ST": "MD",
      "Zip": "21801"
    },
    {
      "Docket": "D-96-6- I5",
      "Company Name": "Energy Trust LLC, d/b/a ET Energy RI, LLC",
      "Address": "PO Box 29914",
      "City": "Baltimore",
      "ST": "MD",
      "Zip": "21230"
    },
    {
      "Docket": "D-96-6- J5",
      "Company Name": "Dominion Energy Manchester St, Inc.",
      "Address": "P.O. Box 26532",
      "City": "Richmond",
      "ST": "VA",
      "Zip": "23261"
    },
    {
      "Docket": "D-96-6- K5",
      "Company Name": "EnerNOC, Inc.",
      "Address": "One Marina Park Dr., Suite 400",
      "City": "Boston",
      "ST": "MA",
      "Zip": "02110"
    },
    {
      "Docket": "D-96-6- M5",
      "Company Name": "Public Power, LLC",
      "Address": "1055 Washington Blvd, 7th Floor",
      "City": "Stamford",
      "ST": "CT",
      "Zip": "06901"
    },
    {
      "Docket": "D-96-6- N5 PNE Energy Supply, LLC d/b/a Power New England",
      "Company Name": "5 Dartmouth Drive, Suite 301",
      "Address": "Auburn",
      "City": "NH",
      "ST": "03032"
    },
    {
      "Docket": "D-96-6- O5",
      "Company Name": "Good Energy, L.P.",
      "Address": "232 Madison Ave, Ste 405",
      "City": "New York",
      "ST": "NY",
      "Zip": "10016"
    },
    {
      "Docket": "D-96-6- P5",
      "Company Name": "Ambit Energy",
      "Address": "1801 North Lamar St, Ste 200",
      "City": "Dallas",
      "ST": "TX",
      "Zip": "75202"
    },
    {
      "Docket": "D-96-6- Q5",
      "Company Name": "The Legacy Energy Group, LLC",
      "Address": "32 Waterloo St., 3rd Fl",
      "City": "Warrenton",
      "ST": "VA",
      "Zip": "20186"
    },
    {
      "Docket": "D-96-6- R5",
      "Company Name": "Clearview Electric Inc.",
      "Address": "P.O. Box 130659",
      "City": "Dallas",
      "ST": "TX",
      "Zip": "75313"
    },
    {
      "Docket": "D-96-6- T5",
      "Company Name": "Better Cost Control, LLC",
      "Address": "2274 Washington St.",
      "City": "Newton",
      "ST": "MA",
      "Zip": "02462"
    },
    {
      "Docket": "D-96-6- U5",
      "Company Name": "North American Power & Gas, LLC",
      "Address": "20 Glover Ave.",
      "City": "Norwalk",
      "ST": "CT",
      "Zip": "06851"
    },
    {
      "Docket": "D-96-6- V5",
      "Company Name": "Verdigris Energy LLC",
      "Address": "PO Box 1777",
      "City": "Allen",
      "ST": "TX",
      "Zip": "75013"
    },
    {
      "Docket": "D-96-6- W5",
      "Company Name": "Choice Energy Services Retail, LP",
      "Address": "5151 San Felipe St, Suite 2200",
      "City": "Houston",
      "ST": "TX",
      "Zip": "77056 `"
    },
    {
      "Docket": "D-96-6- Y5",
      "Company Name": "Union Atlantic Electricity",
      "Address": "261 South Main St. #329",
      "City": "Newtown",
      "ST": "CT",
      "Zip": "06470"
    },
    {
      "Docket": "D-96-6- Z5",
      "Company Name": "RJT Energy Consultants",
      "Address": "116 Washington Ave",
      "City": "North Haven",
      "ST": "CT",
      "Zip": "06473"
    },
    {
      "Docket": "D-96-6- A6",
      "Company Name": "Xoom Energy Rhode Island, LLC",
      "Address": "11208 Statesville Rd., Suite 200",
      "City": "Huntersville",
      "ST": "NC",
      "Zip": "28078"
    }
  ]
}